{
  "type": "FeatureCollection",
  "name": "urmia_allowed_construction_zones",
  "crs": {
    "type": "name",
    "properties": {
      "name": "EPSG:4326"
    }
  },
  "features": [
    {
      "type": "Feature",
      "id": "urmia-zone-001",
      "properties": {
        "id": "urmia-zone-001",
        "name": "محدوده مجاز ساخت‌وساز - بخش مرکزی و جنوبی شهر",
        "layer": "construction_zone"
      },
      "geometry": {
        "type": "Polygon",
        "coordinates": [
          [
            [45.050, 37.500],
            [45.110, 37.500],
            [45.110, 37.560],
            [45.050, 37.560],
            [45.050, 37.500]
          ]
        ]
      }
    }
  ]
}
