{
  "type": "FeatureCollection",
  "name": "urmia_shopping_centers",
  "crs": {
    "type": "name",
    "properties": {
      "name": "EPSG:4326"
    }
  },
  "features": [
    {
      "type": "Feature",
      "id": "urmia-mall-001",
      "properties": {
        "id": "urmia-mall-001",
        "name": "مرکز خرید مرکز شهر",
        "layer": "shopping_center"
      },
      "geometry": {
        "type": "Point",
        "coordinates": [45.0741, 37.5519]
      }
    },
    {
      "type": "Feature",
      "id": "urmia-mall-002",
      "properties": {
        "id": "urmia-mall-002",
        "name": "پاساژ خیابان دانشگاه",
        "layer": "shopping_center"
      },
      "geometry": {
        "type": "Point",
        "coordinates": [45.0691, 37.5405]
      }
    },
    {
      "type": "Feature",
      "id": "urmia-mall-003",
      "properties": {
        "id": "urmia-mall-003",
        "name": "مجتمع تجاری اسلام‌آباد",
        "layer": "shopping_center"
      },
      "geometry": {
        "type": "Point",
        "coordinates": [45.0968, 37.5471]
      }
    }
  ]
}
